[{"OBJECT_NAME":"STARLINK-35397","OBJECT_ID":"2025-221C","EPOCH":"2026-03-09T10:25:17.059872","MEAN_MOTION":15.30173529,"ECCENTRICITY":0.00012492,"INCLINATION":53.1597,"RA_OF_ASC_NODE":89.577,"ARG_OF_PERICENTER":79.9903,"MEAN_ANOMALY":280.1239,"EPHEMERIS_TYPE":0,"CLASSIFICATION_TYPE":"U","NORAD_CAT_ID":65825,"ELEMENT_SET_NO":999,"REV_AT_EPOCH":2604,"BSTAR":0.00057239237,"MEAN_MOTION_DOT":0.00016618,"MEAN_MOTION_DDOT":0},{"OBJECT_NAME":"COSMOS 1869","OBJECT_ID":"1987-062A","EPOCH":"2026-03-09T20:30:29.271744","MEAN_MOTION":15.35392408,"ECCENTRICITY":0.00185772,"INCLINATION":82.5127,"RA_OF_ASC_NODE":201.6716,"ARG_OF_PERICENTER":61.4986,"MEAN_ANOMALY":298.8125,"EPHEMERIS_TYPE":0,"CLASSIFICATION_TYPE":"U","NORAD_CAT_ID":18214,"ELEMENT_SET_NO":999,"REV_AT_EPOCH":8931,"BSTAR":0.00042037944,"MEAN_MOTION_DOT":0.00014573,"MEAN_MOTION_DDOT":0}]
